[
  {
    "COMMENT": "GENERATED VIA SPACETRACK.ORG API",
    "ORIGINATOR": "18 SPCS",
    "NORAD_CAT_ID": "46984",
    "OBJECT_NAME": "S6 MICHAEL FREILICH",
    "OBJECT_TYPE": "PAYLOAD",
    "CLASSIFICATION_TYPE": "U",
    "INTLDES": "20086A",
    "EPOCH": "2023-08-18 03:01:15",
    "EPOCH_MICROSECONDS": "413376",
    "MEAN_MOTION": "12.80929017",
    "ECCENTRICITY": "0.0007939",
    "INCLINATION": "66.0411",
    "RA_OF_ASC_NODE": "122.8108",
    "ARG_OF_PERICENTER": "268.8142",
    "MEAN_ANOMALY": "91.1963",
    "EPHEMERIS_TYPE": "0",
    "ELEMENT_SET_NO": "999",
    "REV_AT_EPOCH": "12801",
    "BSTAR": "0.00014492",
    "MEAN_MOTION_DOT": "-0.00000028",
    "MEAN_MOTION_DDOT": "0",
    "FILE": "3983317",
    "TLE_LINE0": "0 S6 MICHAEL FREILICH",
    "TLE_LINE1": "1 46984U 20086A   23230.12587284 -.00000028  00000-0  14492-3 0  9998",
    "TLE_LINE2": "2 46984  66.0411 122.8108 0007939 268.8142  91.1963 12.80929017128012",
    "OBJECT_ID": "2020-086A",
    "OBJECT_NUMBER": "46984",
    "SEMIMAJOR_AXIS": "7715.874",
    "PERIOD": "112.418",
    "APOGEE": "1343.865",
    "PERIGEE": "1331.613",
    "DECAYED": "0"
  },
  {
    "COMMENT": "GENERATED VIA SPACETRACK.ORG API",
    "ORIGINATOR": "18 SPCS",
    "NORAD_CAT_ID": "46984",
    "OBJECT_NAME": "S6 MICHAEL FREILICH",
    "OBJECT_TYPE": "PAYLOAD",
    "CLASSIFICATION_TYPE": "U",
    "INTLDES": "20086A",
    "EPOCH": "2023-08-19 16:29:50",
    "EPOCH_MICROSECONDS": "727552",
    "MEAN_MOTION": "12.80929091",
    "ECCENTRICITY": "0.000793",
    "INCLINATION": "66.041",
    "RA_OF_ASC_NODE": "119.5676",
    "ARG_OF_PERICENTER": "268.7856",
    "MEAN_ANOMALY": "91.2251",
    "EPHEMERIS_TYPE": "0",
    "ELEMENT_SET_NO": "999",
    "REV_AT_EPOCH": "12821",
    "BSTAR": "0.00012824",
    "MEAN_MOTION_DOT": "-0.00000031",
    "MEAN_MOTION_DDOT": "0",
    "FILE": "3984715",
    "TLE_LINE0": "0 S6 MICHAEL FREILICH",
    "TLE_LINE1": "1 46984U 20086A   23231.68739268 -.00000031  00000-0  12824-3 0  9992",
    "TLE_LINE2": "2 46984  66.0410 119.5676 0007930 268.7856  91.2251 12.80929091128211",
    "OBJECT_ID": "2020-086A",
    "OBJECT_NUMBER": "46984",
    "SEMIMAJOR_AXIS": "7715.874",
    "PERIOD": "112.418",
    "APOGEE": "1343.857",
    "PERIGEE": "1331.620",
    "DECAYED": "0"
  },
  {
    "COMMENT": "GENERATED VIA SPACETRACK.ORG API",
    "ORIGINATOR": "18 SPCS",
    "NORAD_CAT_ID": "46984",
    "OBJECT_NAME": "S6 MICHAEL FREILICH",
    "OBJECT_TYPE": "PAYLOAD",
    "CLASSIFICATION_TYPE": "U",
    "INTLDES": "20086A",
    "EPOCH": "2023-08-20 18:43:51",
    "EPOCH_MICROSECONDS": "440736",
    "MEAN_MOTION": "12.80929126",
    "ECCENTRICITY": "0.000792",
    "INCLINATION": "66.041",
    "RA_OF_ASC_NODE": "117.2974",
    "ARG_OF_PERICENTER": "268.7542",
    "MEAN_ANOMALY": "91.2566",
    "EPHEMERIS_TYPE": "0",
    "ELEMENT_SET_NO": "999",
    "REV_AT_EPOCH": "12835",
    "BSTAR": "0.00010559",
    "MEAN_MOTION_DOT": "-0.00000037",
    "MEAN_MOTION_DDOT": "0",
    "FILE": "3985633",
    "TLE_LINE0": "0 S6 MICHAEL FREILICH",
    "TLE_LINE1": "1 46984U 20086A   23232.78045649 -.00000037  00000-0  10559-3 0  9996",
    "TLE_LINE2": "2 46984  66.0410 117.2974 0007920 268.7542  91.2566 12.80929126128351",
    "OBJECT_ID": "2020-086A",
    "OBJECT_NUMBER": "46984",
    "SEMIMAJOR_AXIS": "7715.874",
    "PERIOD": "112.418",
    "APOGEE": "1343.850",
    "PERIGEE": "1331.628",
    "DECAYED": "0"
  },
  {
    "COMMENT": "GENERATED VIA SPACETRACK.ORG API",
    "ORIGINATOR": "18 SPCS",
    "NORAD_CAT_ID": "46984",
    "OBJECT_NAME": "S6 MICHAEL FREILICH",
    "OBJECT_TYPE": "PAYLOAD",
    "CLASSIFICATION_TYPE": "U",
    "INTLDES": "20086A",
    "EPOCH": "2023-08-21 19:05:26",
    "EPOCH_MICROSECONDS": "378880",
    "MEAN_MOTION": "12.80929198",
    "ECCENTRICITY": "0.0007901",
    "INCLINATION": "66.0409",
    "RA_OF_ASC_NODE": "115.1892",
    "ARG_OF_PERICENTER": "268.6683",
    "MEAN_ANOMALY": "91.3427",
    "EPHEMERIS_TYPE": "0",
    "ELEMENT_SET_NO": "999",
    "REV_AT_EPOCH": "12848",
    "BSTAR": "0.000078496",
    "MEAN_MOTION_DOT": "-0.00000043",
    "MEAN_MOTION_DDOT": "0",
    "FILE": "3986513",
    "TLE_LINE0": "0 S6 MICHAEL FREILICH",
    "TLE_LINE1": "1 46984U 20086A   23233.79544420 -.00000043  00000-0  78496-4 0  9991",
    "TLE_LINE2": "2 46984  66.0409 115.1892 0007901 268.6683  91.3427 12.80929198128489",
    "OBJECT_ID": "2020-086A",
    "OBJECT_NUMBER": "46984",
    "SEMIMAJOR_AXIS": "7715.873",
    "PERIOD": "112.418",
    "APOGEE": "1343.835",
    "PERIGEE": "1331.642",
    "DECAYED": "0"
  },
  {
    "COMMENT": "GENERATED VIA SPACETRACK.ORG API",
    "ORIGINATOR": "18 SPCS",
    "NORAD_CAT_ID": "46984",
    "OBJECT_NAME": "S6 MICHAEL FREILICH",
    "OBJECT_TYPE": "PAYLOAD",
    "CLASSIFICATION_TYPE": "U",
    "INTLDES": "20086A",
    "EPOCH": "2023-08-23 01:04:18",
    "EPOCH_MICROSECONDS": "611040",
    "MEAN_MOTION": "12.80929227",
    "ECCENTRICITY": "0.0007892",
    "INCLINATION": "66.0409",
    "RA_OF_ASC_NODE": "112.5946",
    "ARG_OF_PERICENTER": "268.6545",
    "MEAN_ANOMALY": "91.3566",
    "EPHEMERIS_TYPE": "0",
    "ELEMENT_SET_NO": "999",
    "REV_AT_EPOCH": "12864",
    "BSTAR": "0.00003484",
    "MEAN_MOTION_DOT": "-0.00000053",
    "MEAN_MOTION_DDOT": "0",
    "FILE": "3987543",
    "TLE_LINE0": "0 S6 MICHAEL FREILICH",
    "TLE_LINE1": "1 46984U 20086A   23235.04465985 -.00000053  00000-0  34840-4 0  9995",
    "TLE_LINE2": "2 46984  66.0409 112.5946 0007892 268.6545  91.3566 12.80929227128641",
    "OBJECT_ID": "2020-086A",
    "OBJECT_NUMBER": "46984",
    "SEMIMAJOR_AXIS": "7715.873",
    "PERIOD": "112.418",
    "APOGEE": "1343.828",
    "PERIGEE": "1331.649",
    "DECAYED": "0"
  },
  {
    "COMMENT": "GENERATED VIA SPACETRACK.ORG API",
    "ORIGINATOR": "18 SPCS",
    "NORAD_CAT_ID": "46984",
    "OBJECT_NAME": "S6 MICHAEL FREILICH",
    "OBJECT_TYPE": "PAYLOAD",
    "CLASSIFICATION_TYPE": "U",
    "INTLDES": "20086A",
    "EPOCH": "2023-08-24 01:25:53",
    "EPOCH_MICROSECONDS": "555232",
    "MEAN_MOTION": "12.80929202",
    "ECCENTRICITY": "0.0007891",
    "INCLINATION": "66.0408",
    "RA_OF_ASC_NODE": "110.4865",
    "ARG_OF_PERICENTER": "268.6494",
    "MEAN_ANOMALY": "91.3617",
    "EPHEMERIS_TYPE": "0",
    "ELEMENT_SET_NO": "999",
    "REV_AT_EPOCH": "12864",
    "BSTAR": "0.0000035542",
    "MEAN_MOTION_DOT": "-0.0000006",
    "MEAN_MOTION_DDOT": "0",
    "FILE": "3988199",
    "TLE_LINE0": "0 S6 MICHAEL FREILICH",
    "TLE_LINE1": "1 46984U 20086A   23236.05964763 -.00000060  00000-0  35542-5 0  9994",
    "TLE_LINE2": "2 46984  66.0408 110.4865 0007891 268.6494  91.3617 12.80929202128649",
    "OBJECT_ID": "2020-086A",
    "OBJECT_NUMBER": "46984",
    "SEMIMAJOR_AXIS": "7715.873",
    "PERIOD": "112.418",
    "APOGEE": "1343.827",
    "PERIGEE": "1331.650",
    "DECAYED": "0"
  },
  {
    "COMMENT": "GENERATED VIA SPACETRACK.ORG API",
    "ORIGINATOR": "18 SPCS",
    "NORAD_CAT_ID": "46984",
    "OBJECT_NAME": "S6 MICHAEL FREILICH",
    "OBJECT_TYPE": "PAYLOAD",
    "CLASSIFICATION_TYPE": "U",
    "INTLDES": "20086A",
    "EPOCH": "2023-08-25 01:47:28",
    "EPOCH_MICROSECONDS": "496832",
    "MEAN_MOTION": "12.80929213",
    "ECCENTRICITY": "0.0007881",
    "INCLINATION": "66.0407",
    "RA_OF_ASC_NODE": "108.3782",
    "ARG_OF_PERICENTER": "268.5992",
    "MEAN_ANOMALY": "91.4121",
    "EPHEMERIS_TYPE": "0",
    "ELEMENT_SET_NO": "999",
    "REV_AT_EPOCH": "12890",
    "BSTAR": "-0.0000064674",
    "MEAN_MOTION_DOT": "-0.00000063",
    "MEAN_MOTION_DDOT": "0",
    "FILE": "3988367",
    "TLE_LINE0": "0 S6 MICHAEL FREILICH",
    "TLE_LINE1": "1 46984U 20086A   23237.07463538 -.00000063  00000-0 -64674-5 0  9993",
    "TLE_LINE2": "2 46984  66.0407 108.3782 0007881 268.5992  91.4121 12.80929213128905",
    "OBJECT_ID": "2020-086A",
    "OBJECT_NUMBER": "46984",
    "SEMIMAJOR_AXIS": "7715.873",
    "PERIOD": "112.418",
    "APOGEE": "1343.819",
    "PERIGEE": "1331.657",
    "DECAYED": "0"
  },
  {
    "COMMENT": "GENERATED VIA SPACETRACK.ORG API",
    "ORIGINATOR": "18 SPCS",
    "NORAD_CAT_ID": "46984",
    "OBJECT_NAME": "S6 MICHAEL FREILICH",
    "OBJECT_TYPE": "PAYLOAD",
    "CLASSIFICATION_TYPE": "U",
    "INTLDES": "20086A",
    "EPOCH": "2023-08-25 03:39:54",
    "EPOCH_MICROSECONDS": "262368",
    "MEAN_MOTION": "12.80929221",
    "ECCENTRICITY": "0.0007865",
    "INCLINATION": "66.0407",
    "RA_OF_ASC_NODE": "108.216",
    "ARG_OF_PERICENTER": "268.507",
    "MEAN_ANOMALY": "91.5044",
    "EPHEMERIS_TYPE": "0",
    "ELEMENT_SET_NO": "999",
    "REV_AT_EPOCH": "12878",
    "BSTAR": "-0.0000096944",
    "MEAN_MOTION_DOT": "-0.00000063",
    "MEAN_MOTION_DDOT": "0",
    "FILE": "3988765",
    "TLE_LINE0": "0 S6 MICHAEL FREILICH",
    "TLE_LINE1": "1 46984U 20086A   23237.15271137 -.00000063  00000-0 -96944-5 0  9999",
    "TLE_LINE2": "2 46984  66.0407 108.2160 0007865 268.5070  91.5044 12.80929221128783",
    "OBJECT_ID": "2020-086A",
    "OBJECT_NUMBER": "46984",
    "SEMIMAJOR_AXIS": "7715.873",
    "PERIOD": "112.418",
    "APOGEE": "1343.807",
    "PERIGEE": "1331.670",
    "DECAYED": "0"
  }
]